start=new Date('2022-11-28T00:00:00.000Z').valueOf();
sats=[{"OBJECT_TYPE":"PAYLOAD","CENTER_NAME":"EARTH","EPOCH":"2022-11-27T10:15:20.364192","TIME_SYSTEM":"UTC","APOAPSIS":"548.210","MEAN_ELEMENT_THEORY":"SGP4","REV_AT_EPOCH":"13854","GP_ID":"218954150","COUNTRY_CODE":"US","RA_OF_ASC_NODE":"15.8367","NORAD_CAT_ID":"45703","TLE_LINE1":"1 45703U 20035AY  22331.42731903 -.00004186  00000-0 -26263-3 0  9992","MEAN_MOTION_DDOT":"0.0000000000000","DECAY_DATE":null,"SITE":"AFETR","SEMIMAJOR_AXIS":"6925.491","PERIOD":"95.595","FILE":"3671616","INCLINATION":"53.0562","LAUNCH_DATE":"2020-06-04","MEAN_MOTION":"15.06353632","ECCENTRICITY":"0.00012340","BSTAR":"-0.00026263000000","MEAN_MOTION_DOT":"-0.00004186","TLE_LINE2":"2 45703  53.0562  15.8367 0001234  61.6934 298.4179 15.06353632138546","PERIAPSIS":"546.501","MEAN_ANOMALY":"298.4179","OBJECT_ID":"2020-035AY","EPHEMERIS_TYPE":"0","CLASSIFICATION_TYPE":"U","ELEMENT_SET_NO":"999","RCS_SIZE":"LARGE","ARG_OF_PERICENTER":"61.6934","OBJECT_NAME":"STARLINK-1407","REF_FRAME":"TEME"},{"OBJECT_ID":"2020-035AZ","CLASSIFICATION_TYPE":"U","EPHEMERIS_TYPE":"0","ELEMENT_SET_NO":"999","MEAN_ANOMALY":"283.6640","OBJECT_NAME":"STARLINK-1409","REF_FRAME":"TEME","RCS_SIZE":"LARGE","ARG_OF_PERICENTER":"76.4496","BSTAR":"0.00003745300000","TLE_LINE2":"2 45704  53.0550  45.1248 0001323  76.4496 283.6640 15.06390732138152","MEAN_MOTION_DOT":"0.00000276","INCLINATION":"53.0550","LAUNCH_DATE":"2020-06-04","MEAN_MOTION":"15.06390732","ECCENTRICITY":"0.00013230","PERIAPSIS":"546.326","DECAY_DATE":null,"SITE":"AFETR","MEAN_MOTION_DDOT":"0.0000000000000","SEMIMAJOR_AXIS":"6925.377","NORAD_CAT_ID":"45704","TLE_LINE1":"1 45704U 20035AZ  22331.58574443  .00000276  00000-0  37453-4 0  9992","PERIOD":"95.593","FILE":"3671921","EPOCH":"2022-11-27T14:03:28.318752","TIME_SYSTEM":"UTC","MEAN_ELEMENT_THEORY":"SGP4","APOAPSIS":"548.158","REV_AT_EPOCH":"13815","OBJECT_TYPE":"PAYLOAD","CENTER_NAME":"EARTH","GP_ID":"218988901","COUNTRY_CODE":"US","RA_OF_ASC_NODE":"45.1248"},{"MEAN_MOTION":"15.06393427","ECCENTRICITY":"0.00014790","INCLINATION":"53.0558","LAUNCH_DATE":"2020-06-04","TLE_LINE2":"2 45705  53.0558  45.5824 0001479  56.9983 303.1148 15.06393427137728","MEAN_MOTION_DOT":"-0.00001718","BSTAR":"-0.00009646400000","PERIAPSIS":"546.209","MEAN_ANOMALY":"303.1148","ELEMENT_SET_NO":"999","OBJECT_ID":"2020-035BA","EPHEMERIS_TYPE":"0","CLASSIFICATION_TYPE":"U","RCS_SIZE":"LARGE","ARG_OF_PERICENTER":"56.9983","REF_FRAME":"TEME","OBJECT_NAME":"STARLINK-1410","OBJECT_TYPE":"PAYLOAD","CENTER_NAME":"EARTH","APOAPSIS":"548.258","MEAN_ELEMENT_THEORY":"SGP4","REV_AT_EPOCH":"13772","TIME_SYSTEM":"UTC","EPOCH":"2022-11-27T11:30:54.535104","RA_OF_ASC_NODE":"45.5824","COUNTRY_CODE":"US","GP_ID":"218964997","TLE_LINE1":"1 45705U 20035BA  22331.47979786 -.00001718  00000-0 -96464-4 0  9991","NORAD_CAT_ID":"45705","SEMIMAJOR_AXIS":"6925.369","DECAY_DATE":null,"MEAN_MOTION_DDOT":"0.0000000000000","SITE":"AFETR","FILE":"3671778","PERIOD":"95.593"},{"ARG_OF_PERICENTER":"76.9678","RCS_SIZE":"LARGE","REF_FRAME":"TEME","OBJECT_NAME":"STARLINK-1411","MEAN_ANOMALY":"283.1485","ELEMENT_SET_NO":"999","EPHEMERIS_TYPE":"0","CLASSIFICATION_TYPE":"U","OBJECT_ID":"2020-035BB","PERIAPSIS":"546.139","ECCENTRICITY":"0.00015640","MEAN_MOTION":"15.06397294","LAUNCH_DATE":"2020-06-04","INCLINATION":"53.0568","MEAN_MOTION_DOT":"-0.00000372","TLE_LINE2":"2 45706  53.0568  15.9225 0001564  76.9678 283.1485 15.06397294138531","BSTAR":"-0.00000609050000","FILE":"3671616","PERIOD":"95.592","TLE_LINE1":"1 45706U 20035BB  22331.40515546 -.00000372  00000-0 -60905-5 0  9992","NORAD_CAT_ID":"45706","SEMIMAJOR_AXIS":"6925.357","DECAY_DATE":null,"SITE":"AFETR","MEAN_MOTION_DDOT":"0.0000000000000","RA_OF_ASC_NODE":"15.9225","GP_ID":"218955396","COUNTRY_CODE":"US","CENTER_NAME":"EARTH","OBJECT_TYPE":"PAYLOAD","REV_AT_EPOCH":"13853","MEAN_ELEMENT_THEORY":"SGP4","APOAPSIS":"548.305","EPOCH":"2022-11-27T09:43:25.431744","TIME_SYSTEM":"UTC"},{"MEAN_ELEMENT_THEORY":"SGP4","APOAPSIS":"548.367","REV_AT_EPOCH":"13854","TIME_SYSTEM":"UTC","EPOCH":"2022-11-27T09:38:07.063296","OBJECT_TYPE":"PAYLOAD","CENTER_NAME":"EARTH","RA_OF_ASC_NODE":"15.9593","GP_ID":"218954649","COUNTRY_CODE":"US","SEMIMAJOR_AXIS":"6925.355","DECAY_DATE":null,"SITE":"AFETR","MEAN_MOTION_DDOT":"0.0000000000000","TLE_LINE1":"1 45707U 20035BC  22331.40147064  .00000433  00000-0  47969-4 0  9999","NORAD_CAT_ID":"45707","FILE":"3671616","PERIOD":"95.592","MEAN_MOTION_DOT":"0.00000433","TLE_LINE2":"2 45707  53.0554  15.9593 0001657  65.7054 294.4107 15.06397926138541","BSTAR":"0.00004796900000","MEAN_MOTION":"15.06397926","ECCENTRICITY":"0.00016570","INCLINATION":"53.0554","LAUNCH_DATE":"2020-06-04","PERIAPSIS":"546.072","ELEMENT_SET_NO":"999","OBJECT_ID":"2020-035BC","CLASSIFICATION_TYPE":"U","EPHEMERIS_TYPE":"0","MEAN_ANOMALY":"294.4107","REF_FRAME":"TEME","OBJECT_NAME":"STARLINK-1412","RCS_SIZE":"LARGE","ARG_OF_PERICENTER":"65.7054"},{"APOAPSIS":"548.243","MEAN_ELEMENT_THEORY":"SGP4","REV_AT_EPOCH":"13861","TIME_SYSTEM":"UTC","EPOCH":"2022-11-27T20:09:45.236160","OBJECT_TYPE":"PAYLOAD","CENTER_NAME":"EARTH","RA_OF_ASC_NODE":"13.9789","GP_ID":"218988402","COUNTRY_CODE":"US","SEMIMAJOR_AXIS":"6925.376","MEAN_MOTION_DDOT":"0.0000000000000","DECAY_DATE":null,"SITE":"AFETR","TLE_LINE1":"1 45708U 20035BD  22331.84010690 -.00001460  00000-0 -79170-4 0  9994","NORAD_CAT_ID":"45708","FILE":"3671921","PERIOD":"95.593","MEAN_MOTION_DOT":"-0.00001460","TLE_LINE2":"2 45708  53.0563  13.9789 0001447  67.6901 292.4242 15.06391122138614","BSTAR":"-0.00007917000000","MEAN_MOTION":"15.06391122","ECCENTRICITY":"0.00014470","INCLINATION":"53.0563","LAUNCH_DATE":"2020-06-04","PERIAPSIS":"546.239","ELEMENT_SET_NO":"999","OBJECT_ID":"2020-035BD","CLASSIFICATION_TYPE":"U","EPHEMERIS_TYPE":"0","MEAN_ANOMALY":"292.4242","REF_FRAME":"TEME","OBJECT_NAME":"STARLINK-1418","RCS_SIZE":"LARGE","ARG_OF_PERICENTER":"67.6901"},{"EPHEMERIS_TYPE":"0","CLASSIFICATION_TYPE":"U","OBJECT_ID":"2020-035BE","ELEMENT_SET_NO":"999","MEAN_ANOMALY":"285.5002","OBJECT_NAME":"STARLINK-1421","REF_FRAME":"TEME","ARG_OF_PERICENTER":"74.6145","RCS_SIZE":"LARGE","BSTAR":"-0.00011971000000","MEAN_MOTION_DOT":"-0.00002064","TLE_LINE2":"2 45709  53.0570  15.3114 0001434  74.6145 285.5002 15.06389069138529","LAUNCH_DATE":"2020-06-04","INCLINATION":"53.0570","ECCENTRICITY":"0.00014340","MEAN_MOTION":"15.06389069","PERIAPSIS":"546.254","SITE":"AFETR","DECAY_DATE":null,"MEAN_MOTION_DDOT":"0.0000000000000","SEMIMAJOR_AXIS":"6925.382","NORAD_CAT_ID":"45709","TLE_LINE1":"1 45709U 20035BE  22331.54522769 -.00002064  00000-0 -11971-3 0  9992","FILE":"3671921","PERIOD":"95.593","EPOCH":"2022-11-27T13:05:07.672416","TIME_SYSTEM":"UTC","REV_AT_EPOCH":"13852","APOAPSIS":"548.240","MEAN_ELEMENT_THEORY":"SGP4","CENTER_NAME":"EARTH","OBJECT_TYPE":"PAYLOAD","GP_ID":"218987651","COUNTRY_CODE":"US","RA_OF_ASC_NODE":"15.3114"},{"SEMIMAJOR_AXIS":"6925.354","SITE":"AFETR","DECAY_DATE":null,"MEAN_MOTION_DDOT":"0.0000000000000","TLE_LINE1":"1 45710U 20035BF  22331.54153365  .00000245  00000-0  35344-4 0  9994","NORAD_CAT_ID":"45710","FILE":"3671921","PERIOD":"95.592","MEAN_ELEMENT_THEORY":"SGP4","APOAPSIS":"548.222","REV_AT_EPOCH":"13856","TIME_SYSTEM":"UTC","EPOCH":"2022-11-27T12:59:48.507360","OBJECT_TYPE":"PAYLOAD","CENTER_NAME":"EARTH","RA_OF_ASC_NODE":"15.3294","GP_ID":"218987402","COUNTRY_CODE":"US","ELEMENT_SET_NO":"999","OBJECT_ID":"2020-035BF","EPHEMERIS_TYPE":"0","CLASSIFICATION_TYPE":"U","MEAN_ANOMALY":"292.2316","REF_FRAME":"TEME","OBJECT_NAME":"STARLINK-1423","RCS_SIZE":"LARGE","ARG_OF_PERICENTER":"67.8826","TLE_LINE2":"2 45710  53.0563  15.3294 0001449  67.8826 292.2316 15.06398350138568","MEAN_MOTION_DOT":"0.00000245","BSTAR":"0.00003534400000","MEAN_MOTION":"15.06398350","ECCENTRICITY":"0.00014490","INCLINATION":"53.0563","LAUNCH_DATE":"2020-06-04","PERIAPSIS":"546.215"},{"PERIOD":"95.593","FILE":"3671921","SEMIMAJOR_AXIS":"6925.380","DECAY_DATE":null,"SITE":"AFETR","MEAN_MOTION_DDOT":"0.0000000000000","TLE_LINE1":"1 45711U 20035BG  22331.85484908 -.00001203  00000-0 -61888-4 0  9998","NORAD_CAT_ID":"45711","RA_OF_ASC_NODE":"13.9082","COUNTRY_CODE":"US","GP_ID":"218988652","APOAPSIS":"548.219","MEAN_ELEMENT_THEORY":"SGP4","REV_AT_EPOCH":"13860","TIME_SYSTEM":"UTC","EPOCH":"2022-11-27T20:30:58.960512","OBJECT_TYPE":"PAYLOAD","CENTER_NAME":"EARTH","REF_FRAME":"TEME","OBJECT_NAME":"STARLINK-1433","RCS_SIZE":"LARGE","ARG_OF_PERICENTER":"80.1386","ELEMENT_SET_NO":"999","OBJECT_ID":"2020-035BG","CLASSIFICATION_TYPE":"U","EPHEMERIS_TYPE":"0","MEAN_ANOMALY":"279.9762","PERIAPSIS":"546.272","MEAN_MOTION_DOT":"-0.00001203","TLE_LINE2":"2 45711  53.0568  13.9082 0001406  80.1386 279.9762 15.06389673138605","BSTAR":"-0.00006188800000","MEAN_MOTION":"15.06389673","ECCENTRICITY":"0.00014060","INCLINATION":"53.0568","LAUNCH_DATE":"2020-06-04"},{"ARG_OF_PERICENTER":"71.3227","RCS_SIZE":"LARGE","OBJECT_NAME":"STARLINK-1434","REF_FRAME":"TEME","MEAN_ANOMALY":"288.7922","EPHEMERIS_TYPE":"0","CLASSIFICATION_TYPE":"U","OBJECT_ID":"2020-035BH","ELEMENT_SET_NO":"999","PERIAPSIS":"546.211","LAUNCH_DATE":"2020-06-04","INCLINATION":"53.0554","ECCENTRICITY":"0.00014710","MEAN_MOTION":"15.06394809","BSTAR":"0.00004986500000","TLE_LINE2":"2 45712  53.0554  13.9225 0001471  71.3227 288.7922 15.06394809138612","MEAN_MOTION_DOT":"0.00000461","FILE":"3671921","PERIOD":"95.592","NORAD_CAT_ID":"45712","TLE_LINE1":"1 45712U 20035BH  22331.85116122  .00000461  00000-0  49865-4 0  9993","DECAY_DATE":null,"SITE":"AFETR","MEAN_MOTION_DDOT":"0.0000000000000","SEMIMAJOR_AXIS":"6925.364","COUNTRY_CODE":"US","GP_ID":"218988902","RA_OF_ASC_NODE":"13.9225","CENTER_NAME":"EARTH","OBJECT_TYPE":"PAYLOAD","EPOCH":"2022-11-27T20:25:40.329408","TIME_SYSTEM":"UTC","REV_AT_EPOCH":"13861","MEAN_ELEMENT_THEORY":"SGP4","APOAPSIS":"548.248"}];
